SDO                     
1 36395U 10005A   24188.27132646 -.00000102  00000+0  00000+0 0  9998
2 36395  33.1629  97.2924 0000712 150.0689  33.0498  1.00270289 52939
TERRA                   
1 25994U 99068A   24190.19989517  .00000672  00000+0  14993-3 0  9999
2 25994  98.0472 253.0701 0000884 337.5174  87.7523 14.59849531306234
HST                     
1 20580U 90037B   24189.43690992  .00004627  00000+0  21201-3 0  9997
2 20580  28.4668 209.4325 0002309 250.0269 110.0075 15.18002489680112
POLAR                   
1 23802U 96013A   24185.84112491  .00000241  00000+0  00000+0 0  9999
2 23802  79.1350 234.4898 5884451 233.1935  57.2773  1.29847235135574
SWAS                    
1 25560U 98071A   24190.22106284  .00003287  00000+0  26706-3 0  9997
2 25560  69.8971 244.9744 0009772 262.9079  97.0969 15.00590623390805
CXO                     
1 25867U 99040B   24191.66312343  .00000408  00000+0  00000+0 0  9995
2 25867  41.6496 151.7250 8871285 297.9290   0.1797  0.37808744 25808
XMM-NEWTON              
1 25989U 99066A   24190.37064473  .00000010  00000+0  00000+0 0  9992
2 25989  67.7055 292.5874 5123707  76.8597   0.3054  0.50137762 33817
CLUSTER II-FM7 (SAMBA)  
1 26410U 00041A   24191.94727644  .00000983  00000+0  00000+0 0  9996
2 26410 139.5811 359.0182 7548772 214.0103 359.1051  0.44199929 17146
CLUSTER II-FM6 (SALSA)  
1 26411U 00041B   24191.85449043  .00004802  00000+0  00000+0 0  9995
2 26411 149.0511  29.7120 9046768 245.3837 359.2005  0.44240942 17203
CLUSTER II-FM5 (RUMBA)  
1 26463U 00045A   24191.93009012  .00003641  00000+0  00000+0 0  9993
2 26463 150.9779  22.2493 8585577 237.8575 359.1313  0.44219058 17078
CLUSTER II-FM8 (TANGO)  
1 26464U 00045B   24191.94733820  .00000984  00000+0  00000+0 0  9993
2 26464 139.6090 359.0437 7544856 214.0345 359.1173  0.44222023 17153
ODIN                    
1 26702U 01007A   24189.57321027  .00017746  00000+0  74514-3 0  9994
2 26702  97.4782 204.6734 0007751 190.1588 169.9494 15.23488187280003
TIMED                   
1 26998U 01055B   24190.17566123  .00001417  00000+0  14530-3 0  9990
2 26998  74.0689 219.1967 0002688 270.4331  89.6543 14.91520589225096
INTEGRAL                
1 27540U 02048A   24189.33690731 -.00000388  00000+0  00000+0 0  9996
2 27540  89.3985  19.8668 8639177 281.4398 242.3016  0.37581173 23969
CORIOLIS                
1 27640U 03001A   24189.52741844  .00000193  00000+0  11225-3 0  9998
2 27640  98.7124 196.4210 0015335  96.0919 264.2005 14.19495206113528
SORCE                   
1 27651U 03004A   24189.79857238  .00003764  00000+0  34646-3 0  9996
2 27651  39.9942 327.2887 0020756  19.9982 340.1619 14.95374621165350
MOST                    
1 27843U 03031D   24189.54676286  .00000134  00000+0  81814-4 0  9992
2 27843  98.7055 196.2280 0010711 136.3369 223.8657 14.20977169 89915
SCISAT 1                
1 27858U 03036A   24190.16963868  .00001146  00000+0  15882-3 0  9993
2 27858  73.9318 138.1983 0007467 350.7187   9.3849 14.79271929126521
SWIFT                   
1 28485U 04047A   24189.92230724  .00012867  00000+0  55984-3 0  9992
2 28485  20.5575  32.6904 0007765 185.1118 174.9240 15.19697372 77480
CALIPSO                 
1 29108U 06016B   24189.90437979  .00001978  00000+0  37120-3 0  9995
2 29108  98.4186 172.2866 0001451  79.5965 280.5401 14.65888514969006
HINODE (SOLAR-B)        
1 29479U 06041A   24189.54184961  .00001314  00000+0  24516-3 0  9993
2 29479  98.0881 204.5867 0018432  21.4449 338.7524 14.66527911950762
SHIJIAN-6 02A (SJ-6 02A)
1 29505U 06046A   24190.17610860  .00004793  00000+0  35384-3 0  9990
2 29505  97.7180 217.2295 0004935  62.7441 297.4286 15.03726614965315
SHIJIAN-6 02B (SJ-6 02B)
1 29506U 06046B   24190.16356756  .00002279  00000+0  20078-3 0  9992
2 29506  97.7385 214.8700 0001346 153.5504 206.5787 14.97459265964479
FGRST (GLAST)           
1 33053U 08029A   24189.82685309  .00003988  00000+0  18079-3 0  9993
2 33053  25.5832  67.5449 0009803 274.6545  85.2872 15.16983763887935
IBEX                    
1 33401U 08051A   24164.27430556 -.00003805  00000+0  00000+0 0  9999
2 33401  50.1566  25.5374 6611084  41.6955  57.3231  0.11224328   697
WISE                    
1 36119U 09071A   24190.14906996  .00056858  00000+0  52594-3 0  9996
2 36119  97.1410 227.0606 0003079 108.1516 252.0081 15.67366882811547
CRYOSAT 2               
1 36508U 10013A   24189.82584712  .00000370  00000+0  91168-4 0  9996
2 36508  92.0341 106.0405 0002323 153.7718 206.3607 14.51896447755191
X-SAT                   
1 37389U 11015C   24189.98595344  .00000207  00000+0  10623-3 0  9992
2 37389  98.2929 192.8257 0012814 266.0255  93.9461 14.24721890687198
GCOM-W1 (SHIZUKU)       
1 38337U 12025A   24189.41128716  .00000845  00000+0  19744-3 0  9992
2 38337  98.2034 129.1335 0001501  67.5061  43.9102 14.57150517645671
NUSTAR                  
1 38358U 12031A   24189.58334491  .00007945  00000+0  61264-3 0  9991
2 38358   6.0261 273.2772 0009068  73.8999   2.8256 14.96588417  1302
NEOSSAT                 
1 39089U 13009D   24189.54089573  .00000272  00000+0  11011-3 0  9994
2 39089  98.4045  16.3703 0010759 195.8580 164.2270 14.35194763594934
